start=new Date('2022-11-06T00:00:00.000Z').valueOf();
sats=[{"SITE":"AFETR","TLE_LINE1":"1 46161U 20057AW  22309.47933500  .00004084  00000-0  29316-3 0  9999","APOAPSIS":"548.442","CLASSIFICATION_TYPE":"U","MEAN_MOTION_DOT":"0.00004084","EPHEMERIS_TYPE":"0","ELEMENT_SET_NO":"999","PERIOD":"95.594","NORAD_CAT_ID":"46161","DECAY_DATE":null,"EPOCH":"2022-11-05T11:30:14.544000","INCLINATION":"53.0562","TIME_SYSTEM":"UTC","RCS_SIZE":"LARGE","MEAN_MOTION":"15.06370329","GP_ID":"216960100","CENTER_NAME":"EARTH","SEMIMAJOR_AXIS":"6925.439","RA_OF_ASC_NODE":"14.3528","MEAN_ELEMENT_THEORY":"SGP4","MEAN_ANOMALY":"294.1513","TLE_LINE2":"2 46161  53.0562  14.3528 0001642  65.9648 294.1513 15.06370329123686","BSTAR":"0.00029316000000","OBJECT_NAME":"STARLINK-1600","ARG_OF_PERICENTER":"65.9648","REV_AT_EPOCH":"12368","MEAN_MOTION_DDOT":"0.0000000000000","ECCENTRICITY":"0.00016420","FILE":"3645109","LAUNCH_DATE":"2020-08-18","PERIAPSIS":"546.167","REF_FRAME":"TEME","COUNTRY_CODE":"US","OBJECT_TYPE":"PAYLOAD","OBJECT_ID":"2020-057AW"},{"ARG_OF_PERICENTER":"76.4192","TLE_LINE2":"2 46162  53.0542  14.6501 0001294  76.4192 283.6941 15.06397569123686","BSTAR":"-0.00011884000000","OBJECT_NAME":"STARLINK-1603","ECCENTRICITY":"0.00012940","REV_AT_EPOCH":"12368","MEAN_MOTION_DDOT":"0.0000000000000","GP_ID":"216959350","MEAN_MOTION":"15.06397569","RCS_SIZE":"LARGE","TIME_SYSTEM":"UTC","MEAN_ELEMENT_THEORY":"SGP4","RA_OF_ASC_NODE":"14.6501","MEAN_ANOMALY":"283.6941","CENTER_NAME":"EARTH","SEMIMAJOR_AXIS":"6925.356","OBJECT_TYPE":"PAYLOAD","OBJECT_ID":"2020-057AX","LAUNCH_DATE":"2020-08-18","FILE":"3645109","REF_FRAME":"TEME","COUNTRY_CODE":"US","PERIAPSIS":"546.325","CLASSIFICATION_TYPE":"U","TLE_LINE1":"1 46162U 20057AX  22309.41667082 -.00002051  00000-0 -11884-3 0  9998","APOAPSIS":"548.117","SITE":"AFETR","EPOCH":"2022-11-05T10:00:00.358848","NORAD_CAT_ID":"46162","DECAY_DATE":null,"INCLINATION":"53.0542","ELEMENT_SET_NO":"999","EPHEMERIS_TYPE":"0","MEAN_MOTION_DOT":"-0.00002051","PERIOD":"95.592"},{"MEAN_MOTION_DDOT":"0.0000000000000","REV_AT_EPOCH":"12270","ECCENTRICITY":"0.00015920","OBJECT_NAME":"STARLINK-1610","BSTAR":"-0.00014224000000","TLE_LINE2":"2 46163  53.0563 354.6478 0001592  65.5693 294.5462 15.06399334122709","ARG_OF_PERICENTER":"65.5693","SEMIMAJOR_AXIS":"6925.351","CENTER_NAME":"EARTH","MEAN_ANOMALY":"294.5462","RA_OF_ASC_NODE":"354.6478","MEAN_ELEMENT_THEORY":"SGP4","TIME_SYSTEM":"UTC","RCS_SIZE":"LARGE","MEAN_MOTION":"15.06399334","GP_ID":"216959599","OBJECT_ID":"2020-057AY","OBJECT_TYPE":"PAYLOAD","PERIAPSIS":"546.113","COUNTRY_CODE":"US","REF_FRAME":"TEME","FILE":"3645109","LAUNCH_DATE":"2020-08-18","CLASSIFICATION_TYPE":"U","TLE_LINE1":"1 46163U 20057AY  22309.41483189 -.00002400  00000-0 -14224-3 0  9992","APOAPSIS":"548.318","SITE":"AFETR","INCLINATION":"53.0563","DECAY_DATE":null,"NORAD_CAT_ID":"46163","EPOCH":"2022-11-05T09:57:21.475296","PERIOD":"95.592","MEAN_MOTION_DOT":"-0.00002400","ELEMENT_SET_NO":"999","EPHEMERIS_TYPE":"0"},{"SITE":"AFETR","TLE_LINE1":"1 46164U 20057AZ  22309.54384744 -.00000607  00000-0 -21839-4 0  9992","APOAPSIS":"548.265","CLASSIFICATION_TYPE":"U","MEAN_MOTION_DOT":"-0.00000607","ELEMENT_SET_NO":"999","EPHEMERIS_TYPE":"0","PERIOD":"95.593","NORAD_CAT_ID":"46164","DECAY_DATE":null,"EPOCH":"2022-11-05T13:03:08.418816","INCLINATION":"53.0553","TIME_SYSTEM":"UTC","RCS_SIZE":"LARGE","MEAN_MOTION":"15.06384149","GP_ID":"216959850","CENTER_NAME":"EARTH","SEMIMAJOR_AXIS":"6925.397","RA_OF_ASC_NODE":"354.0575","MEAN_ELEMENT_THEORY":"SGP4","MEAN_ANOMALY":"299.7613","TLE_LINE2":"2 46164  53.0553 354.0575 0001448  60.3520 299.7613 15.06384149123987","BSTAR":"-0.00002183900000","OBJECT_NAME":"STARLINK-1612","ARG_OF_PERICENTER":"60.3520","REV_AT_EPOCH":"12398","MEAN_MOTION_DDOT":"0.0000000000000","ECCENTRICITY":"0.00014480","FILE":"3645109","LAUNCH_DATE":"2020-08-18","PERIAPSIS":"546.259","REF_FRAME":"TEME","COUNTRY_CODE":"US","OBJECT_TYPE":"PAYLOAD","OBJECT_ID":"2020-057AZ"},{"PERIOD":"94.791","MEAN_MOTION_DOT":"0.00053929","ELEMENT_SET_NO":"999","EPHEMERIS_TYPE":"0","INCLINATION":"53.0575","NORAD_CAT_ID":"46165","DECAY_DATE":null,"EPOCH":"2022-11-05T10:25:52.711104","SITE":"AFETR","TLE_LINE1":"1 46165U 20057BA  22309.43463786  .00053929  00000-0  25315-2 0  9999","APOAPSIS":"510.874","CLASSIFICATION_TYPE":"U","PERIAPSIS":"506.028","REF_FRAME":"TEME","COUNTRY_CODE":"US","FILE":"3645109","LAUNCH_DATE":"2020-08-18","OBJECT_ID":"2020-057BA","OBJECT_TYPE":"PAYLOAD","CENTER_NAME":"EARTH","SEMIMAJOR_AXIS":"6886.586","MEAN_ELEMENT_THEORY":"SGP4","RA_OF_ASC_NODE":"22.1235","MEAN_ANOMALY":"4.1594","TIME_SYSTEM":"UTC","RCS_SIZE":"LARGE","GP_ID":"216960601","MEAN_MOTION":"15.19136438","REV_AT_EPOCH":"12232","MEAN_MOTION_DDOT":"0.0000000000000","ECCENTRICITY":"0.00035180","BSTAR":"0.00253150000000","TLE_LINE2":"2 46165  53.0575  22.1235 0003518 355.9371   4.1594 15.19136438122328","OBJECT_NAME":"STARLINK-1613","ARG_OF_PERICENTER":"355.9371"},{"REV_AT_EPOCH":"12218","MEAN_MOTION_DDOT":"0.0000000000000","ECCENTRICITY":"0.00012220","TLE_LINE2":"2 46166  53.0565  33.5463 0001222  77.0378 283.0748 15.06371867122182","BSTAR":"-0.00064701000000","OBJECT_NAME":"STARLINK-1615","ARG_OF_PERICENTER":"77.0378","CENTER_NAME":"EARTH","SEMIMAJOR_AXIS":"6925.435","RA_OF_ASC_NODE":"33.5463","MEAN_ELEMENT_THEORY":"SGP4","MEAN_ANOMALY":"283.0748","TIME_SYSTEM":"UTC","RCS_SIZE":"LARGE","MEAN_MOTION":"15.06371867","GP_ID":"217015593","OBJECT_ID":"2020-057BB","OBJECT_TYPE":"PAYLOAD","PERIAPSIS":"546.453","REF_FRAME":"TEME","COUNTRY_CODE":"US","FILE":"3646512","LAUNCH_DATE":"2020-08-18","CLASSIFICATION_TYPE":"U","SITE":"AFETR","TLE_LINE1":"1 46166U 20057BB  22309.66179938 -.00009898  00000-0 -64701-3 0  9999","APOAPSIS":"548.146","INCLINATION":"53.0565","NORAD_CAT_ID":"46166","DECAY_DATE":null,"EPOCH":"2022-11-05T15:52:59.466432","PERIOD":"95.594","MEAN_MOTION_DOT":"-0.00009898","ELEMENT_SET_NO":"999","EPHEMERIS_TYPE":"0"},{"COUNTRY_CODE":"US","REF_FRAME":"TEME","PERIAPSIS":"546.335","LAUNCH_DATE":"2020-08-18","FILE":"3645109","OBJECT_ID":"2020-057BC","OBJECT_TYPE":"PAYLOAD","MEAN_ANOMALY":"281.1071","RA_OF_ASC_NODE":"34.0556","MEAN_ELEMENT_THEORY":"SGP4","SEMIMAJOR_AXIS":"6925.445","CENTER_NAME":"EARTH","MEAN_MOTION":"15.06368371","GP_ID":"216959100","TIME_SYSTEM":"UTC","RCS_SIZE":"LARGE","ECCENTRICITY":"0.00014090","MEAN_MOTION_DDOT":"0.0000000000000","REV_AT_EPOCH":"12216","ARG_OF_PERICENTER":"79.0077","OBJECT_NAME":"STARLINK-1626","BSTAR":"-0.00031888000000","TLE_LINE2":"2 46167  53.0560  34.0556 0001409  79.0077 281.1071 15.06368371122164","PERIOD":"95.594","ELEMENT_SET_NO":"999","EPHEMERIS_TYPE":"0","MEAN_MOTION_DOT":"-0.00005024","INCLINATION":"53.0560","EPOCH":"2022-11-05T13:03:10.527840","DECAY_DATE":null,"NORAD_CAT_ID":"46167","TLE_LINE1":"1 46167U 20057BC  22309.54387185 -.00005024  00000-0 -31888-3 0  9999","APOAPSIS":"548.286","SITE":"AFETR","CLASSIFICATION_TYPE":"U"},{"ECCENTRICITY":"0.00016470","MEAN_MOTION_DDOT":"0.0000000000000","REV_AT_EPOCH":"12355","ARG_OF_PERICENTER":"48.8028","OBJECT_NAME":"STARLINK-1627","BSTAR":"-0.00008983600000","TLE_LINE2":"2 46168  53.0561 343.0578 0001647  48.8028 311.3103 15.06388034123551","MEAN_ANOMALY":"311.3103","MEAN_ELEMENT_THEORY":"SGP4","RA_OF_ASC_NODE":"343.0578","SEMIMAJOR_AXIS":"6925.385","CENTER_NAME":"EARTH","GP_ID":"216976053","MEAN_MOTION":"15.06388034","RCS_SIZE":"LARGE","TIME_SYSTEM":"UTC","OBJECT_ID":"2020-057BD","OBJECT_TYPE":"PAYLOAD","COUNTRY_CODE":"US","REF_FRAME":"TEME","PERIAPSIS":"546.110","LAUNCH_DATE":"2020-08-18","FILE":"3645652","CLASSIFICATION_TYPE":"U","APOAPSIS":"548.391","TLE_LINE1":"1 46168U 20057BD  22309.78806411 -.00001619  00000-0 -89836-4 0  9997","SITE":"AFETR","INCLINATION":"53.0561","EPOCH":"2022-11-05T18:54:48.739104","DECAY_DATE":null,"NORAD_CAT_ID":"46168","PERIOD":"95.593","EPHEMERIS_TYPE":"0","ELEMENT_SET_NO":"999","MEAN_MOTION_DOT":"-0.00001619"},{"PERIOD":"95.645","ELEMENT_SET_NO":"999","EPHEMERIS_TYPE":"0","MEAN_MOTION_DOT":"-0.00007093","INCLINATION":"53.0013","EPOCH":"2022-11-05T15:17:19.207968","NORAD_CAT_ID":"46169","DECAY_DATE":null,"APOAPSIS":"550.646","TLE_LINE1":"1 46169U 20057BE  22309.63702787 -.00007093  00000-0 -46833-3 0  9994","SITE":"AFETR","CLASSIFICATION_TYPE":"U","REF_FRAME":"TEME","COUNTRY_CODE":"US","PERIAPSIS":"548.896","LAUNCH_DATE":"2020-08-18","FILE":"3646512","OBJECT_ID":"2020-057BE","OBJECT_TYPE":"PAYLOAD","MEAN_ELEMENT_THEORY":"SGP4","RA_OF_ASC_NODE":"33.6383","MEAN_ANOMALY":"258.5828","CENTER_NAME":"EARTH","SEMIMAJOR_AXIS":"6927.906","MEAN_MOTION":"15.05565891","GP_ID":"217015341","RCS_SIZE":"LARGE","TIME_SYSTEM":"UTC","ECCENTRICITY":"0.00012630","REV_AT_EPOCH":"12212","MEAN_MOTION_DDOT":"0.0000000000000","ARG_OF_PERICENTER":"101.5302","TLE_LINE2":"2 46169  53.0013  33.6383 0001263 101.5302 258.5828 15.05565891122121","BSTAR":"-0.00046833000000","OBJECT_NAME":"STARLINK-1628"},{"PERIOD":"95.593","MEAN_MOTION_DOT":"-0.00002952","ELEMENT_SET_NO":"999","EPHEMERIS_TYPE":"0","INCLINATION":"53.0562","NORAD_CAT_ID":"46171","DECAY_DATE":null,"EPOCH":"2022-11-05T14:04:12.118368","APOAPSIS":"548.351","TLE_LINE1":"1 46171U 20057BG  22309.58625137 -.00002952  00000-0 -17940-3 0  9990","SITE":"AFETR","CLASSIFICATION_TYPE":"U","PERIAPSIS":"546.153","REF_FRAME":"TEME","COUNTRY_CODE":"US","FILE":"3646512","LAUNCH_DATE":"2020-08-18","OBJECT_ID":"2020-057BG","OBJECT_TYPE":"PAYLOAD","CENTER_NAME":"EARTH","SEMIMAJOR_AXIS":"6925.387","RA_OF_ASC_NODE":"13.8727","MEAN_ELEMENT_THEORY":"SGP4","MEAN_ANOMALY":"305.7609","TIME_SYSTEM":"UTC","RCS_SIZE":"LARGE","GP_ID":"217016093","MEAN_MOTION":"15.06387566","REV_AT_EPOCH":"12370","MEAN_MOTION_DDOT":"0.0000000000000","ECCENTRICITY":"0.00015870","BSTAR":"-0.00017940000000","TLE_LINE2":"2 46171  53.0562  13.8727 0001587  54.3528 305.7609 15.06387566123708","OBJECT_NAME":"STARLINK-1633","ARG_OF_PERICENTER":"54.3528"}];
